     3.02           N: GNSS NAV DATA    E: GALILEO          RINEX VERSION / TYPE
GR50 V4.20          ICGC                20180612 235942 UTC PGM / RUN BY / DATE
GAL    2.3500D+01 -3.5156D-02  1.4008D-02  0.0000D+00       IONOSPHERIC CORR
GAUT  3.6321580410D-08-1.421085472D-14 172800 2005          TIME SYSTEM CORR
GPGA  3.2538082451D-08-4.440892099D-15 259200 2005          TIME SYSTEM CORR
    18    18  1929     7                                    LEAP SECONDS
                                                            END OF HEADER
E25 2018 06 13 14 40 00 1.173519471195D-03 4.003339881820D-10 0.000000000000D+00
     8.000000000000D+00 2.674375000000D+02 2.793687796882D-09-1.239894374806D+00
     1.241266727448D-05 2.348616253585D-04 5.776062607765D-06 5.440622495651D+03
     3.120000000000D+05-1.862645149231D-09 7.617721885608D-01-3.725290298462D-09
     9.924918866423D-01 2.300000000000D+02-3.041309126253D+00-5.604162007271D-09
     5.218074496605D-10 2.580000000000D+02 2.005000000000D+03 0.000000000000D+00
     3.120000000000D+00 5.600000000000D+01-1.396983861923D-09 0.000000000000D+00
     3.127000000000D+05
E02 2018 06 13 14 20 00 1.623720163479D-05 1.008970684779D-12 0.000000000000D+00
     6.000000000000D+00 2.504375000000D+02 2.657253542419D-09-7.424568335073D-01
     1.154653728008D-05 1.158871455118D-04 6.822869181633D-06 5.440622138977D+03
     3.108000000000D+05 6.705522537231D-08 7.643046036232D-01-7.450580596924D-08
     9.929272539885D-01 2.073750000000D+02 1.781601846251D+00-5.598804641258D-09
     4.718053668730D-10 5.130000000000D+02 2.005000000000D+03 0.000000000000D+00
     3.120000000000D+00 0.000000000000D+00-6.519258022308D-09-7.683411240578D-09
     3.132250000000D+05
E02 2018 06 13 14 20 00 1.623883144930D-05 1.008970684779D-12 0.000000000000D+00
     6.000000000000D+00 2.504375000000D+02 2.657253542419D-09-7.424568335073D-01
     1.154653728008D-05 1.158871455118D-04 6.822869181633D-06 5.440622138977D+03
     3.108000000000D+05 6.705522537231D-08 7.643046036232D-01-7.450580596924D-08
     9.929272539885D-01 2.073750000000D+02 1.781601846251D+00-5.598804641258D-09
     4.718053668730D-10 2.580000000000D+02 2.005000000000D+03 0.000000000000D+00
     3.120000000000D+00 0.000000000000D+00-6.519258022308D-09 0.000000000000D+00
     3.132500000000D+05
E11 2018 06 13 14 50 00 1.126218994614D-03 4.824727284358D-10 0.000000000000D+00
     9.000000000000D+00-2.213750000000D+02 2.482603410397D-09 3.612261181520D-01
    -1.017935574055D-05 4.816970322281D-04 1.275166869164D-05 5.440615535736D+03
     3.126000000000D+05 1.490116119385D-08 2.852004185491D+00 2.607703208923D-08
     9.796281992752D-01 6.984375000000D+01 3.579307064621D-01-5.302363721875D-09
    -2.071514858337D-10 5.170000000000D+02 2.005000000000D+03 0.000000000000D+00
     3.120000000000D+00 0.000000000000D+00-1.862645149231D-08-2.025626599789D-08
     3.132640000000D+05
E14 2018 06 13 14 50 00 6.567535223439D-03-6.025402399246D-12 0.000000000000D+00
     9.000000000000D+00-1.888125000000D+02 2.382242087088D-09 7.879031355796D-01
    -1.187995076180D-05 1.657573616831D-01 1.426786184311D-06 5.289398368835D+03
     3.126000000000D+05 2.922490239143D-06 2.295772910168D+00-6.061047315598D-06
     8.818086356006D-01 3.432500000000D+02 1.334434567687D+00-3.959807799032D-09
     7.286017777600D-10 5.130000000000D+02 2.005000000000D+03 0.000000000000D+00
     3.120000000000D+00 4.550000000000D+02 3.282912075520D-08 3.678724169731D-08
     3.132640000000D+05
E25 2018 06 13 14 50 00 1.173759286758D-03 4.003339881820D-10 0.000000000000D+00
     9.000000000000D+00 2.677187500000D+02 2.802259582502D-09-1.165613266894D+00
     1.242943108082D-05 2.348341513425D-04 5.779787898064D-06 5.440622419357D+03
     3.126000000000D+05 1.490116119385D-08 7.617689628264D-01 1.862645149231D-08
     9.924921616709D-01 2.299062500000D+02-3.041205534098D+00-5.619519789841D-09
     5.100212444320D-10 5.130000000000D+02 2.005000000000D+03 0.000000000000D+00
     3.120000000000D+00 4.550000000000D+02-1.396983861923D-09-1.862645149231D-09
     3.132640000000D+05
E11 2018 06 13 14 50 00 1.126222778112D-03 4.824727284358D-10 0.000000000000D+00
     9.000000000000D+00-2.213750000000D+02 2.482603410397D-09 3.612261181520D-01
    -1.017935574055D-05 4.816970322281D-04 1.275166869164D-05 5.440615535736D+03
     3.126000000000D+05 1.490116119385D-08 2.852004185491D+00 2.607703208923D-08
     9.796281992752D-01 6.984375000000D+01 3.579307064621D-01-5.302363721875D-09
    -2.071514858337D-10 2.580000000000D+02 2.005000000000D+03 0.000000000000D+00
     3.120000000000D+00 0.000000000000D+00-1.862645149231D-08 0.000000000000D+00
     3.133000000000D+05
E14 2018 06 13 14 50 00 6.567531789187D-03-5.996980689815D-12 0.000000000000D+00
     9.000000000000D+00-1.888125000000D+02 2.382242087088D-09 7.879031355796D-01
    -1.187995076180D-05 1.657573616831D-01 1.426786184311D-06 5.289398368835D+03
     3.126000000000D+05 2.922490239143D-06 2.295772910168D+00-6.061047315598D-06
     8.818086356006D-01 3.432500000000D+02 1.334434567687D+00-3.959807799032D-09
     7.286017777600D-10 2.580000000000D+02 2.005000000000D+03 0.000000000000D+00
     3.120000000000D+00 5.600000000000D+01 3.282912075520D-08 0.000000000000D+00
     3.133000000000D+05
E25 2018 06 13 14 50 00 1.173759927042D-03 4.003339881820D-10 0.000000000000D+00
     9.000000000000D+00 2.677187500000D+02 2.802259582502D-09-1.165613266894D+00
     1.242943108082D-05 2.348341513425D-04 5.779787898064D-06 5.440622419357D+03
     3.126000000000D+05 1.490116119385D-08 7.617689628264D-01 1.862645149231D-08
     9.924921616709D-01 2.299062500000D+02-3.041205534098D+00-5.619519789841D-09
     5.100212444320D-10 2.580000000000D+02 2.005000000000D+03 0.000000000000D+00
     3.120000000000D+00 5.600000000000D+01-1.396983861923D-09 0.000000000000D+00
     3.133000000000D+05
E24 2018 06 13 14 50 00 6.655168836005D-03-2.012257027673D-11 0.000000000000D+00
     9.000000000000D+00 2.536875000000D+02 2.758329181196D-09 1.613988089242D+00
     1.184642314911D-05 4.059775965288D-04 4.574656486511D-06 5.440618679047D+03
     3.126000000000D+05 3.539025783539D-08 7.681596502356D-01-4.470348358154D-08
     9.904946157908D-01 2.587500000000D+02 1.212436705918D+00-5.613090950626D-09
     4.993065124061D-10 5.130000000000D+02 2.005000000000D+03 0.000000000000D+00
     3.120000000000D+00 0.000000000000D+00 4.237517714500D-08 4.726462066174D-08
     3.134740000000D+05
E24 2018 06 13 14 50 00 6.655164121184D-03-2.012257027673D-11 0.000000000000D+00
     9.000000000000D+00 2.536875000000D+02 2.758329181196D-09 1.613988089242D+00
     1.184642314911D-05 4.059775965288D-04 4.574656486511D-06 5.440618679047D+03
     3.126000000000D+05 3.539025783539D-08 7.681596502356D-01-4.470348358154D-08
     9.904946157908D-01 2.587500000000D+02 1.212436705918D+00-5.613090950626D-09
     4.993065124061D-10 2.580000000000D+02 2.005000000000D+03 0.000000000000D+00
     3.120000000000D+00 0.000000000000D+00 4.237517714500D-08 0.000000000000D+00
     3.135000000000D+05
E11 2018 06 13 15 00 00 1.126508635934D-03 4.824869392905D-10 0.000000000000D+00
     1.000000000000D+01-2.188125000000D+02 2.477960359852D-09 4.349774522254D-01
    -1.006759703159D-05 4.820023896173D-04 1.284852623940D-05 5.440616401672D+03
     3.132000000000D+05 5.774199962616D-08 2.852000869055D+00 4.097819328308D-08
     9.796279505791D-01 6.762500000000D+01 3.585645391266D-01-5.316292873509D-09
    -1.803646557690D-10 5.170000000000D+02 2.005000000000D+03 0.000000000000D+00
     3.120000000000D+00 0.000000000000D+00-1.862645149231D-08-2.025626599789D-08
     3.138640000000D+05
E14 2018 06 13 15 00 00 6.567531730980D-03-6.011191544530D-12 0.000000000000D+00
     1.000000000000D+01-1.889687500000D+02 1.905436511936D-09 8.688341234115D-01
    -1.187436282635D-05 1.657573267585D-01 1.527369022369D-07 5.289405450821D+03
     3.132000000000D+05 4.198402166367D-06 2.295767789955D+00-5.118548870087D-06
     8.818124450393D-01 3.688437500000D+02 1.334455952624D+00-3.351568177696D-09
     4.943063041274D-10 5.130000000000D+02 2.005000000000D+03 0.000000000000D+00
     3.120000000000D+00 4.550000000000D+02 3.282912075520D-08 3.678724169731D-08
     3.138640000000D+05
E25 2018 06 13 15 00 00 1.173999684397D-03 4.003481990367D-10 0.000000000000D+00
     1.000000000000D+01 2.671250000000D+02 2.804759686642D-09-1.090999437283D+00
     1.241266727448D-05 2.348849084228D-04 5.777925252914D-06 5.440622568130D+03
     3.132000000000D+05 1.862645149231D-08 7.617656888157D-01 3.725290298462D-08
     9.924924337736D-01 2.300000000000D+02-3.041434586107D+00-5.631663152804D-09
     5.028780897481D-10 5.130000000000D+02 2.005000000000D+03 0.000000000000D+00
     3.120000000000D+00 4.550000000000D+02-1.396983861923D-09-1.862645149231D-09
     3.138640000000D+05
E24 2018 06 13 15 00 00 6.655157019850D-03-2.010835942201D-11 0.000000000000D+00
     1.000000000000D+01 2.540000000000D+02 2.746900133702D-09 1.687984628867D+00
     1.185759902000D-05 4.058977356181D-04 4.528090357780D-06 5.440619033813D+03
     3.132000000000D+05 4.284083843231D-08 7.681562708948D-01-4.284083843231D-08
     9.904949493361D-01 2.600937500000D+02 1.212825191129D+00-5.607019269144D-09
     4.985921969377D-10 5.130000000000D+02 2.005000000000D+03 0.000000000000D+00
     3.120000000000D+00 0.000000000000D+00 4.237517714500D-08 4.726462066174D-08
     3.138640000000D+05
E11 2018 06 13 15 00 00 1.126512419432D-03 4.824869392905D-10 0.000000000000D+00
     1.000000000000D+01-2.188125000000D+02 2.477960359852D-09 4.349774522254D-01
    -1.006759703159D-05 4.820023896173D-04 1.284852623940D-05 5.440616401672D+03
     3.132000000000D+05 5.774199962616D-08 2.852000869055D+00 4.097819328308D-08
     9.796279505791D-01 6.762500000000D+01 3.585645391266D-01-5.316292873509D-09
    -1.803646557690D-10 2.580000000000D+02 2.005000000000D+03 0.000000000000D+00
     3.120000000000D+00 0.000000000000D+00-1.862645149231D-08 0.000000000000D+00
     3.139000000000D+05
